ADRAS-J                 
1 58992U 24034A   24069.20874074  .00008301  00000+0  64553-3 0  9996
2 58992  98.2037  37.7484 0045969  20.0779 104.0489 15.00718854  2934
